API VERSION: 1.2
API SOURCE: NASA/JPL Horizons API



*******************************************************************************
Ephemeris / API_USER Fri Apr  3 11:28:36 2026 Pasadena, USA      / Horizons
*******************************************************************************
Target body name: Mars (499)                      {source: mar099}
Center body name: Sun (10)                        {source: DE441}
Center-site name: BODY CENTER
*******************************************************************************
Start time      : A.D. 2026-May-02 02:26:59.9997 TDB
Stop  time      : A.D. 2026-May-04 02:26:59.9997 TDB
Step-size       : 60 minutes
*******************************************************************************
Center geodetic : 0.0, 0.0, 0.0                   {E-lon(deg),Lat(deg),Alt(km)}
Center cylindric: 0.0, 0.0, 0.0                   {E-lon(deg),Dxy(km),Dz(km)}
Center radii    : 695700.0, 695700.0, 695700.0 km {Equator_a, b, pole_c}
Output units    : AU-D
Calendar mode   : Mixed Julian/Gregorian
Output type     : GEOMETRIC cartesian states
Output format   : 3 (position, velocity, LT, range, range-rate)
Reference frame : Ecliptic of J2000.0
*******************************************************************************
            JDTDB,            Calendar Date (TDB),                      X,                      Y,                      Z,                     VX,                     VY,                     VZ,                     LT,                     RG,                     RR,
**************************************************************************************************************************************************************************************************************************************************************************
$$SOE
2461163.852083330, A.D. 2026-May-03 08:26:59.9997,  1.391153228631900E+00,  3.795120440683481E-03, -3.403257379883241E-02,  4.991318091992460E-04,  1.518990414395580E-02,  3.060899531960872E-04,  8.037064730533680E-03,  1.391574620547346E+00,  5.329209829769980E-04,
2461163.893749997, A.D. 2026-May-03 09:26:59.9997,  1.391173893185562E+00,  4.428032728511957E-03, -3.401981680707301E-02,  4.927668006303999E-04,  1.518988518745328E-02,  3.062456406220473E-04,  8.037193041528062E-03,  1.391596836907337E+00,  5.334642742332381E-04,
2461163.935416663, A.D. 2026-May-03 10:26:59.9997,  1.391194292534860E+00,  5.060944165922857E-03, -3.400705332969814E-02,  4.864020014824818E-04,  1.518986332371887E-02,  3.064012619722999E-04,  8.037321483247862E-03,  1.391619075901732E+00,  5.340074358865708E-04,
2461163.977083330, A.D. 2026-May-03 11:26:59.9997,  1.391214426688742E+00,  5.693854631811999E-03, -3.399428336955332E-02,  4.800374222758629E-04,  1.518983855554827E-02,  3.065568129967023E-04,  8.037450055662990E-03,  1.391641337525321E+00,  5.345504769135452E-04,
2461164.018749997, A.D. 2026-May-03 12:26:59.9997,  1.391234295656530E+00,  6.326764005355184E-03, -3.398150692961563E-02,  4.736730692962209E-04,  1.518981089317977E-02,  3.067122921370364E-04,  8.037578758745133E-03,  1.391663621773203E+00,  5.350934020330533E-04,
2461164.060416663, A.D. 2026-May-03 13:26:59.9997,  1.391253899447631E+00,  6.959672166195350E-03, -3.396872401283813E-02,  4.673089402670694E-04,  1.518978034712749E-02,  3.068677020642942E-04,  8.037707592466104E-03,  1.391685928640496E+00,  5.356362073259936E-04,
2461164.102083330, A.D. 2026-May-03 14:26:59.9997,  1.391273238071215E+00,  7.592578994280244E-03, -3.395593462200214E-02,  4.609450270888571E-04,  1.518974692060510E-02,  3.070230477104190E-04,  8.037836556795923E-03,  1.391708258122011E+00,  5.361788829793915E-04,
2461164.143749997, A.D. 2026-May-03 15:26:59.9997,  1.391292311536129E+00,  8.225484369497934E-03, -3.394313875970725E-02,  4.545813234624115E-04,  1.518971060811918E-02,  3.071783324071430E-04,  8.037965651702342E-03,  1.391730610212163E+00,  5.367214209729202E-04,
2461164.185416663, A.D. 2026-May-03 16:26:59.9997,  1.391311119851070E+00,  8.858388171413135E-03, -3.393033642847695E-02,  4.482178288213643E-04,  1.518967140053524E-02,  3.073335563704475E-04,  8.038094877151824E-03,  1.391752984905146E+00,  5.372638190564926E-04,
2461164.227083330, A.D. 2026-May-03 17:26:59.9997,  1.391329663024845E+00,  9.491290279221937E-03, -3.391752763089127E-02,  4.418545489497048E-04,  1.518962929005857E-02,  3.074887168065813E-04,  8.038224233111090E-03,  1.391775382195197E+00,  5.378060813899732E-04,
2461164.268749997, A.D. 2026-May-03 18:26:59.9997,  1.391347941066603E+00,  1.012419057189881E-02, -3.390471236968654E-02,  4.354914938037323E-04,  1.518958427447335E-02,  3.076438093305114E-04,  8.038353719548426E-03,  1.391797802076826E+00,  5.383482163664913E-04,
2461164.310416663, A.D. 2026-May-03 19:26:59.9997,  1.391365953985919E+00,  1.075708892848670E-02, -3.389189064777440E-02,  4.291286730522923E-04,  1.518953635940932E-02,  3.077988303430768E-04,  8.038483336434228E-03,  1.391820244544906E+00,  5.388902321294424E-04,
2461164.352083330, A.D. 2026-May-03 20:26:59.9997,  1.391383701792671E+00,  1.138998522840786E-02, -3.387906246815661E-02,  4.227660905017580E-04,  1.518948555640902E-02,  3.079537796107641E-04,  8.038613083740266E-03,  1.391842709594551E+00,  5.394321309419648E-04,
2461164.393749997, A.D. 2026-May-03 21:26:59.9997,  1.391401184496697E+00,  1.202287935153292E-02, -3.386622783374821E-02,  4.164037408667185E-04,  1.518943187397796E-02,  3.081086611163435E-04,  8.038742961437698E-03,  1.391865197220765E+00,  5.399739058752028E-04,
2461164.435416663, A.D. 2026-May-03 22:26:59.9997,  1.391418402107532E+00,  1.265577117791870E-02, -3.385338674727286E-02,  4.100416161635812E-04,  1.518937531218325E-02,  3.082634794742322E-04,  8.038872969495533E-03,  1.391887707418183E+00,  5.405155472284828E-04,
2461164.477083330, A.D. 2026-May-03 23:26:59.9997,  1.391435354634431E+00,  1.328866058745301E-02, -3.384053921130038E-02,  4.036797115995199E-04,  1.518931586348552E-02,  3.084182371061414E-04,  8.039003107880725E-03,  1.391910240181085E+00,  5.410570484698997E-04,
2461164.518749997, A.D. 2026-May-04 00:26:59.9997,  1.391452042086581E+00,  1.392154745965331E-02, -3.382768522837051E-02,  3.973180291045234E-04,  1.518925351881111E-02,  3.085729330052843E-04,  8.039133376559449E-03,  1.391932795503611E+00,  5.415984098382327E-04,
2461164.560416663, A.D. 2026-May-04 01:26:59.9997,  1.391468464473376E+00,  1.455443167371349E-02, -3.381482480112163E-02,  3.909565761284808E-04,  1.518918827208217E-02,  3.087275636995182E-04,  8.039263775498658E-03,  1.391955373380042E+00,  5.421396371610860E-04,
2461164.602083330, A.D. 2026-May-04 02:26:59.9997,  1.391484621804594E+00,  1.518731310868231E-02, -3.380195793236453E-02,  3.845953632174260E-04,  1.518912012328812E-02,  3.088821246940333E-04,  8.039394304667142E-03,  1.391977973804972E+00,  5.426807394389383E-04,
